[{"OBJECT_NAME":"STARLINK-5927","OBJECT_ID":"2023-037W","EPOCH":"2026-03-09T23:17:41.428032","MEAN_MOTION":14.98325789,"ECCENTRICITY":0.00031066,"INCLINATION":69.9983,"RA_OF_ASC_NODE":283.6929,"ARG_OF_PERICENTER":268.5475,"MEAN_ANOMALY":91.5328,"EPHEMERIS_TYPE":0,"CLASSIFICATION_TYPE":"U","NORAD_CAT_ID":55934,"ELEMENT_SET_NO":999,"REV_AT_EPOCH":16402,"BSTAR":0.00012257811,"MEAN_MOTION_DOT":1.37e-5,"MEAN_MOTION_DDOT":0},{"OBJECT_NAME":"DMSP 5D-2 F12 DEB","OBJECT_ID":"1994-057D","EPOCH":"2026-03-09T16:53:24.857088","MEAN_MOTION":14.9537003,"ECCENTRICITY":0.00045084,"INCLINATION":98.0659,"RA_OF_ASC_NODE":110.2499,"ARG_OF_PERICENTER":136.2971,"MEAN_ANOMALY":344.9264,"EPHEMERIS_TYPE":0,"CLASSIFICATION_TYPE":"U","NORAD_CAT_ID":23250,"ELEMENT_SET_NO":999,"REV_AT_EPOCH":65299,"BSTAR":0.0022486615,"MEAN_MOTION_DOT":0.00024839,"MEAN_MOTION_DDOT":0}]
